ONEWEB-0168             
1 48068U 21025AC  23306.81771816 -.00000087  00000+0 -27237-3 0  9999
2 48068  87.8930 150.7314 0001621  86.1232 274.0082 13.13469695127882
ONEWEB-0173             
1 48069U 21025AD  23306.81136932  .00000053  00000+0  11031-3 0  9990
2 48069  87.8931 150.7488 0001054  94.9071 265.2179 13.13469180128120
ONEWEB-0171             
1 48070U 21025AE  23306.84523493 -.00000111  00000+0 -33797-3 0  9997
2 48070  87.8998 150.7502 0001316  80.7618 279.3660 13.13472776127948
ONEWEB-0172             
1 48071U 21025AF  23306.82724079 -.00000182  00000+0 -53446-3 0  9990
2 48071  87.8999 150.7221 0001208  83.3310 276.7956 13.13471483128838
ONEWEB-0174             
1 48072U 21025AG  23306.80925026 -.00000660  00000+0 -18421-2 0  9998
2 48072  87.8997 150.7408 0001711  87.5215 272.6110 13.13469089128154
ONEWEB-0175             
1 48073U 21025AH  23306.83676634 -.00000370  00000+0 -10481-2 0  9996
2 48073  87.9000 150.7303 0001302  66.2372 293.8893 13.13468596127816
ONEWEB-0177             
1 48074U 21025AJ  23306.84944019 -.00002741  00000+0 -75425-2 0  9996
2 48074  87.9002 150.7320 0001553  94.0803 266.0504 13.13486141128003
ONEWEB-0178             
1 48075U 21025AK  23306.86744343  .00000412  00000+0  10941-2 0  9990
2 48075  87.8996 150.7326 0001440  92.3752 267.7542 13.13471746128050
